OBJECT_NAME,OBJECT_ID,EPOCH,MEAN_MOTION,ECCENTRICITY,INCLINATION,RA_OF_ASC_NODE,ARG_OF_PERICENTER,MEAN_ANOMALY,EPHEMERIS_TYPE,CLASSIFICATION_TYPE,NORAD_CAT_ID,ELEMENT_SET_NO,REV_AT_EPOCH,BSTAR,MEAN_MOTION_DOT,MEAN_MOTION_DDOT
STARLINK-34543,2025-157Y,2026-06-18T10:41:52.609920,15.31711121,.0001781,53.1586,237.4041,70.1889,289.9305,0,U,64926,999,5150,.35456E-3,.10657E-3,0
STARLINK-34661,2025-157Z,2026-06-18T00:58:29.253504,15.34418391,.00012344,53.1584,239.1367,42.2639,317.8458,0,U,64927,999,5121,.17225456E-2,.5831E-3,0
STARLINK-34248,2025-157AA,2026-06-18T11:12:46.579392,15.34406071,.0000657,53.1582,237.5371,52.3973,307.7089,0,U,64928,999,5155,.58042E-3,.19288E-3,0
STARLINK-34290,2025-157AB,2026-06-18T18:00:02.000160,15.33555437,.0000786,53.1589,236.2580,76.7730,25.4392,0,U,64929,999,559,.36009E-3,.11491E-3,0
STARLINK-34220,2025-157AC,2026-06-18T11:22:03.559584,15.31718208,.0001319,53.1576,236.8617,93.4612,266.6541,0,U,64930,999,5145,.40454E-3,.12216E-3,0
STARLINK-34715,2025-157AD,2026-06-18T04:24:16.073568,15.34406829,.00017583,53.1594,238.6151,73.7591,286.3605,0,U,64931,999,5151,.58097459E-3,.19308E-3,0
STARLINK-34705,2025-158A,2026-06-18T09:07:42.625344,15.05658095,.0002411,97.3484,32.2414,107.8114,252.3376,0,U,64932,999,5050,.17113E-3,.2413E-4,0
STARLINK-34737,2025-158B,2026-06-18T15:14:33.979200,15.05653869,.000182,97.3521,32.5135,95.2763,264.8672,0,U,64933,999,5054,.12635E-3,.1766E-4,0
STARLINK-34775,2025-158C,2026-06-18T15:10:34.676256,15.05659834,.0002087,97.3465,32.5238,96.2883,263.8582,0,U,64934,999,5054,.23776E-3,.3376E-4,0
STARLINK-34726,2025-158D,2026-06-18T14:38:41.337888,15.05656832,.0003263,97.3460,32.5556,90.2436,269.9165,0,U,64935,999,5054,.23833E-3,.3384E-4,0
STARLINK-34529,2025-158E,2026-06-18T04:12:38.333088,15.05660747,.0001827,97.3468,32.0672,76.9594,283.1837,0,U,64936,999,5047,.37823E-3,.5406E-4,0
STARLINK-34743,2025-158F,2026-06-18T15:06:35.553024,15.05662335,.0002388,97.3471,32.5280,87.1503,272.9998,0,U,64937,999,5054,.27898E-3,.3972E-4,0
STARLINK-34730,2025-158G,2026-06-18T07:47:58.417152,15.05660342,.0002038,97.3462,32.3200,92.1745,267.9715,0,U,64938,999,5050,.14624E-3,.2054E-4,0
STARLINK-34714,2025-158H,2026-06-18T07:51:58.927104,15.05666976,.0002201,97.3479,32.3262,90.8164,269.3315,0,U,64939,999,5034,.27777E-3,.3955E-4,0
STARLINK-34755,2025-158J,2026-06-18T09:00:24.369984,15.04828761,.0002088,97.3464,32.6035,97.4754,262.6710,0,U,64940,999,5052,.30621E-3,.4268E-4,0
STARLINK-34740,2025-158K,2026-06-18T14:34:41.551104,15.05652006,.0002792,97.3460,32.5578,84.9522,275.2024,0,U,64941,999,5048,-.50533E-4,-.786E-5,0
STARLINK-34742,2025-158L,2026-06-18T14:26:43.550016,15.05658630,.0002938,97.3458,32.5585,84.2675,275.8887,0,U,64942,999,5054,.17351E-3,.2448E-4,0
STARLINK-34719,2025-158M,2026-06-18T14:42:40.463712,15.05655906,.0002615,97.3455,32.5507,85.4617,274.6910,0,U,64943,999,5054,.12732E-3,.1781E-4,0
STARLINK-34373,2025-158N,2026-06-18T09:03:43.587648,15.05658090,.0001828,97.3485,32.2546,90.1024,270.0413,0,U,64944,999,5050,.1892E-3,.2674E-4,0
STARLINK-34758,2025-158P,2026-06-18T14:54:38.101248,15.05657883,.0002606,97.3450,32.5394,69.7141,290.4367,0,U,64945,999,5054,.16782E-3,.2366E-4,0
STARLINK-34753,2025-158Q,2026-06-18T14:46:39.770976,15.05655005,.0002883,97.3460,32.5418,81.5667,278.5887,0,U,64946,999,5054,.10353E-3,.1437E-4,0
STARLINK-34747,2025-158R,2026-06-18T15:02:36.292416,15.05659998,.000207,97.3469,32.5342,92.3915,267.7550,0,U,64947,999,5054,.23901E-3,.3394E-4,0
STARLINK-34630,2025-158S,2026-06-18T07:55:57.169920,15.05656296,.0002665,97.3482,32.3229,91.2141,268.9392,0,U,64948,999,5050,.1314E-3,.184E-4,0
STARLINK-34689,2025-158T,2026-06-18T04:24:35.925696,15.05659250,.0002107,97.3481,32.0542,83.9876,276.1592,0,U,64949,999,5047,.25E-3,.3553E-4,0
STARLINK-34586,2025-158U,2026-06-18T04:08:39.217632,15.05659015,.0002541,97.3464,32.0737,72.8608,287.2897,0,U,64950,999,5047,.32678E-3,.4662E-4,0
STARLINK-34738,2025-158V,2026-06-18T14:30:43.010208,15.05665798,.0003603,97.3464,32.5607,79.6412,280.5222,0,U,64951,999,5054,.80877E-4,.111E-4,0
STARLINK-34744,2025-158W,2026-06-18T04:32:34.457280,15.05659797,.0002551,97.3455,32.0435,77.2637,282.8875,0,U,64952,999,5047,.23788E-3,.3378E-4,0
STARLINK-34701,2025-158X,2026-06-18T14:22:44.300640,15.05661277,.0002629,97.3458,32.5702,85.7212,274.4316,0,U,64953,999,5054,.24348E-3,.3459E-4,0
STARLINK-34761,2025-158Y,2026-06-18T07:39:59.018976,15.05662092,.0002024,97.3485,32.1797,100.1728,259.9728,0,U,64954,999,5049,.30832E-3,.4396E-4,0
STARLINK-34732,2025-158Z,2026-06-18T14:50:39.041952,15.05655030,.0002993,97.3469,32.5455,81.6664,278.4902,0,U,64955,999,5054,.10523E-3,.1462E-4,0
