[ {"name": "STARLINK-34543", "line1": "1 64926U 25157Y   26169.44574780  .00010657  00000+0  35456-3 0  9994", "line2": "2 64926  53.1586 237.4041 0001781  70.1889 289.9305 15.31711121 51508"}, {"name": "STARLINK-34661", "line1": "1 64927U 25157Z   26169.04061636  .00058310  00000+0  17225-2 0  9993", "line2": "2 64927  53.1584 239.1367 0001234  42.2639 317.8458 15.34418391 51217"}, {"name": "STARLINK-34248", "line1": "1 64928U 25157AA  26169.46720578  .00019288  00000+0  58042-3 0  9991", "line2": "2 64928  53.1582 237.5371 0000657  52.3973 307.7089 15.34406071 51551"}, {"name": "STARLINK-34290", "line1": "1 64929U 25157AB  26169.75002315  .00011491  00000+0  36009-3 0  9993", "line2": "2 64929  53.1589 236.2580 0000786  76.7730  25.4392 15.33555437  5595"}, {"name": "STARLINK-34220", "line1": "1 64930U 25157AC  26169.47365231  .00012216  00000+0  40454-3 0  9998", "line2": "2 64930  53.1576 236.8617 0001319  93.4612 266.6541 15.31718208 51454"}, {"name": "STARLINK-34715", "line1": "1 64931U 25157AD  26169.18351937  .00019308  00000+0  58097-3 0  9996", "line2": "2 64931  53.1594 238.6151 0001758  73.7591 286.3605 15.34406829 51515"}, {"name": "STARLINK-34705", "line1": "1 64932U 25158A   26169.38035446  .00002413  00000+0  17113-3 0  9997", "line2": "2 64932  97.3484  32.2414 0002411 107.8114 252.3376 15.05658095 50509"}, {"name": "STARLINK-34737", "line1": "1 64933U 25158B   26169.63511550  .00001766  00000+0  12635-3 0  9995", "line2": "2 64933  97.3521  32.5135 0001820  95.2763 264.8672 15.05653869 50543"}, {"name": "STARLINK-34775", "line1": "1 64934U 25158C   26169.63234579  .00003376  00000+0  23776-3 0  9996", "line2": "2 64934  97.3465  32.5238 0002087  96.2883 263.8582 15.05659834 50542"}, {"name": "STARLINK-34726", "line1": "1 64935U 25158D   26169.61020067  .00003384  00000+0  23833-3 0  9993", "line2": "2 64935  97.3460  32.5556 0003263  90.2436 269.9165 15.05656832 50545"}, {"name": "STARLINK-34529", "line1": "1 64936U 25158E   26169.17544367  .00005406  00000+0  37823-3 0  9990", "line2": "2 64936  97.3468  32.0672 0001827  76.9594 283.1837 15.05660747 50474"}, {"name": "STARLINK-34743", "line1": "1 64937U 25158F   26169.62957816  .00003972  00000+0  27898-3 0  9995", "line2": "2 64937  97.3471  32.5280 0002388  87.1503 272.9998 15.05662335 50543"}, {"name": "STARLINK-34730", "line1": "1 64938U 25158G   26169.32498168  .00002054  00000+0  14624-3 0  9996", "line2": "2 64938  97.3462  32.3200 0002038  92.1745 267.9715 15.05660342 50503"}, {"name": "STARLINK-34714", "line1": "1 64939U 25158H   26169.32776536  .00003955  00000+0  27777-3 0  9999", "line2": "2 64939  97.3479  32.3262 0002201  90.8164 269.3315 15.05666976 50345"}, {"name": "STARLINK-34755", "line1": "1 64940U 25158J   26169.37528206  .00004268  00000+0  30621-3 0  9995", "line2": "2 64940  97.3464  32.6035 0002088  97.4754 262.6710 15.04828761 50529"}, {"name": "STARLINK-34740", "line1": "1 64941U 25158K   26169.60742536 -.00000786  00000+0 -50533-4 0  9994", "line2": "2 64941  97.3460  32.5578 0002792  84.9522 275.2024 15.05652006 50484"}, {"name": "STARLINK-34742", "line1": "1 64942U 25158L   26169.60189294  .00002448  00000+0  17351-3 0  9996", "line2": "2 64942  97.3458  32.5585 0002938  84.2675 275.8887 15.05658630 50543"}, {"name": "STARLINK-34719", "line1": "1 64943U 25158M   26169.61296833  .00001781  00000+0  12732-3 0  9993", "line2": "2 64943  97.3455  32.5507 0002615  85.4617 274.6910 15.05655906 50543"}, {"name": "STARLINK-34373", "line1": "1 64944U 25158N   26169.37758782  .00002674  00000+0  18920-3 0  9990", "line2": "2 64944  97.3485  32.2546 0001828  90.1024 270.0413 15.05658090 50508"}, {"name": "STARLINK-34758", "line1": "1 64945U 25158P   26169.62127432  .00002366  00000+0  16782-3 0  9993", "line2": "2 64945  97.3450  32.5394 0002606  69.7141 290.4367 15.05657883 50549"}, {"name": "STARLINK-34753", "line1": "1 64946U 25158Q   26169.61573809  .00001437  00000+0  10353-3 0  9992", "line2": "2 64946  97.3460  32.5418 0002883  81.5667 278.5887 15.05655005 50548"}, {"name": "STARLINK-34747", "line1": "1 64947U 25158R   26169.62680894  .00003394  00000+0  23901-3 0  9994", "line2": "2 64947  97.3469  32.5342 0002070  92.3915 267.7550 15.05659998 50540"}, {"name": "STARLINK-34630", "line1": "1 64948U 25158S   26169.33052280  .00001840  00000+0  13140-3 0  9993", "line2": "2 64948  97.3482  32.3229 0002665  91.2141 268.9392 15.05656296 50508"}, {"name": "STARLINK-34689", "line1": "1 64949U 25158T   26169.18374914  .00003553  00000+0  25000-3 0  9999", "line2": "2 64949  97.3481  32.0542 0002107  83.9876 276.1592 15.05659250 50479"}, {"name": "STARLINK-34586", "line1": "1 64950U 25158U   26169.17267613  .00004662  00000+0  32678-3 0  9998", "line2": "2 64950  97.3464  32.0737 0002541  72.8608 287.2897 15.05659015 50470"}, {"name": "STARLINK-34738", "line1": "1 64951U 25158V   26169.60466447  .00001110  00000+0  80877-4 0  9993", "line2": "2 64951  97.3464  32.5607 0003603  79.6412 280.5222 15.05665798 50541"}, {"name": "STARLINK-34744", "line1": "1 64952U 25158W   26169.18928770  .00003378  00000+0  23788-3 0  9994", "line2": "2 64952  97.3455  32.0435 0002551  77.2637 282.8875 15.05659797 50473"}, {"name": "STARLINK-34701", "line1": "1 64953U 25158X   26169.59912385  .00003459  00000+0  24348-3 0  9998", "line2": "2 64953  97.3458  32.5702 0002629  85.7212 274.4316 15.05661277 50549"}, {"name": "STARLINK-34761", "line1": "1 64954U 25158Y   26169.31943309  .00004396  00000+0  30832-3 0  9995", "line2": "2 64954  97.3485  32.1797 0002024 100.1728 259.9728 15.05662092 50498"}, {"name": "STARLINK-34732", "line1": "1 64955U 25158Z   26169.61850743  .00001462  00000+0  10523-3 0  9994", "line2": "2 64955  97.3469  32.5455 0002993  81.6664 278.4902 15.05655030 50543"}]